[{"OBJECT_NAME":"MAKERSAT 0","OBJECT_ID":"2017-073D","EPOCH":"2026-03-09T15:16:53.554944","MEAN_MOTION":15.27797199,"ECCENTRICITY":0.0115258,"INCLINATION":97.4777,"RA_OF_ASC_NODE":310.6155,"ARG_OF_PERICENTER":266.0743,"MEAN_ANOMALY":92.7313,"EPHEMERIS_TYPE":0,"CLASSIFICATION_TYPE":"U","NORAD_CAT_ID":43016,"ELEMENT_SET_NO":999,"REV_AT_EPOCH":45124,"BSTAR":0.0007159,"MEAN_MOTION_DOT":0.00023659,"MEAN_MOTION_DDOT":0},{"OBJECT_NAME":"STARLINK-36746","OBJECT_ID":"2026-026N","EPOCH":"2026-03-09T17:17:20.739552","MEAN_MOTION":15.4925536,"ECCENTRICITY":9.162e-5,"INCLINATION":97.2846,"RA_OF_ASC_NODE":123.0634,"ARG_OF_PERICENTER":71.5867,"MEAN_ANOMALY":288.5484,"EPHEMERIS_TYPE":0,"CLASSIFICATION_TYPE":"U","NORAD_CAT_ID":67733,"ELEMENT_SET_NO":999,"REV_AT_EPOCH":411,"BSTAR":0.0019410593,"MEAN_MOTION_DOT":0.00107174,"MEAN_MOTION_DDOT":0}]
